CCSDS_OMM_VERS = 2.0
CREATION_DATE  = 
ORIGINATOR     = 

OBJECT_NAME    = STARLINK-37113
OBJECT_ID      = 2026-057AA
CENTER_NAME    = EARTH
REF_FRAME      = TEME
TIME_SYSTEM    = UTC
MEAN_ELEMENT_THEORY = SGP/SGP4

EPOCH          = 2026-03-26T06:00:02.000160
MEAN_MOTION    = 16.09465467
ECCENTRICITY   = .00012041
INCLINATION    = 97.2815
RA_OF_ASC_NODE = 208.1375
ARG_OF_PERICENTER = 50.7930
MEAN_ANOMALY   = 55.5155

EPHEMERIS_TYPE = 0
CLASSIFICATION_TYPE = U
NORAD_CAT_ID   = 68318
ELEMENT_SET_NO = 999
REV_AT_EPOCH   = 192
BSTAR          = -.94326073E-3
MEAN_MOTION_DOT = -.843818E-2
MEAN_MOTION_DDOT = .26835603E-3

CCSDS_OMM_VERS = 2.0
CREATION_DATE  = 
ORIGINATOR     = 

OBJECT_NAME    = PROGRESS-MS 33
OBJECT_ID      = 2026-058A
CENTER_NAME    = EARTH
REF_FRAME      = TEME
TIME_SYSTEM    = UTC
MEAN_ELEMENT_THEORY = SGP/SGP4

EPOCH          = 2026-03-26T03:56:25.626336
MEAN_MOTION    = 15.48550942
ECCENTRICITY   = .00062355
INCLINATION    = 51.6341
RA_OF_ASC_NODE = 350.9181
ARG_OF_PERICENTER = 233.8862
MEAN_ANOMALY   = 126.1549

EPHEMERIS_TYPE = 0
CLASSIFICATION_TYPE = U
NORAD_CAT_ID   = 68319
ELEMENT_SET_NO = 999
REV_AT_EPOCH   = 33
BSTAR          = .25199987E-3
MEAN_MOTION_DOT = .13248E-3
MEAN_MOTION_DDOT = 0

CCSDS_OMM_VERS = 2.0
CREATION_DATE  = 
ORIGINATOR     = 

OBJECT_NAME    = CENTISPACE-1 OBJECT A
OBJECT_ID      = 2026-060A
CENTER_NAME    = EARTH
REF_FRAME      = TEME
TIME_SYSTEM    = UTC
MEAN_ELEMENT_THEORY = SGP/SGP4

EPOCH          = 2026-03-26T00:36:43.656192
MEAN_MOTION    = 14.74886326
ECCENTRICITY   = .00127263
INCLINATION    = 54.9834
RA_OF_ASC_NODE = 14.9809
ARG_OF_PERICENTER = 300.1022
MEAN_ANOMALY   = 59.8715

EPHEMERIS_TYPE = 0
CLASSIFICATION_TYPE = U
NORAD_CAT_ID   = 68350
ELEMENT_SET_NO = 999
REV_AT_EPOCH   = 50
BSTAR          = .32598833E-4
MEAN_MOTION_DOT = .11E-6
MEAN_MOTION_DDOT = 0

CCSDS_OMM_VERS = 2.0
CREATION_DATE  = 
ORIGINATOR     = 

OBJECT_NAME    = CENTISPACE-1 OBJECT B
OBJECT_ID      = 2026-060B
CENTER_NAME    = EARTH
REF_FRAME      = TEME
TIME_SYSTEM    = UTC
MEAN_ELEMENT_THEORY = SGP/SGP4

EPOCH          = 2026-03-26T02:14:13.801056
MEAN_MOTION    = 14.74919091
ECCENTRICITY   = .0013009
INCLINATION    = 54.9834
RA_OF_ASC_NODE = 14.7039
ARG_OF_PERICENTER = 301.4041
MEAN_ANOMALY   = 58.5685

EPHEMERIS_TYPE = 0
CLASSIFICATION_TYPE = U
NORAD_CAT_ID   = 68351
ELEMENT_SET_NO = 999
REV_AT_EPOCH   = 51
BSTAR          = .32811847E-4
MEAN_MOTION_DOT = .13E-6
MEAN_MOTION_DDOT = 0

CCSDS_OMM_VERS = 2.0
CREATION_DATE  = 
ORIGINATOR     = 

OBJECT_NAME    = CENTISPACE-1 OBJECT C
OBJECT_ID      = 2026-060C
CENTER_NAME    = EARTH
REF_FRAME      = TEME
TIME_SYSTEM    = UTC
MEAN_ELEMENT_THEORY = SGP/SGP4

EPOCH          = 2026-03-26T05:28:46.943040
MEAN_MOTION    = 14.75104807
ECCENTRICITY   = .00123682
INCLINATION    = 54.9837
RA_OF_ASC_NODE = 14.1489
ARG_OF_PERICENTER = 307.4498
MEAN_ANOMALY   = 52.5375

EPHEMERIS_TYPE = 0
CLASSIFICATION_TYPE = U
NORAD_CAT_ID   = 68352
ELEMENT_SET_NO = 999
REV_AT_EPOCH   = 53
BSTAR          = .34178633E-4
MEAN_MOTION_DOT = .23E-6
MEAN_MOTION_DDOT = 0

CCSDS_OMM_VERS = 2.0
CREATION_DATE  = 
ORIGINATOR     = 

OBJECT_NAME    = CENTISPACE-1 OBJECT D
OBJECT_ID      = 2026-060D
CENTER_NAME    = EARTH
REF_FRAME      = TEME
TIME_SYSTEM    = UTC
MEAN_ELEMENT_THEORY = SGP/SGP4

EPOCH          = 2026-03-25T21:20:45.019680
MEAN_MOTION    = 14.75148967
ECCENTRICITY   = .0012248
INCLINATION    = 54.9856
RA_OF_ASC_NODE = 15.5356
ARG_OF_PERICENTER = 306.2125
MEAN_ANOMALY   = 53.7741

EPHEMERIS_TYPE = 0
CLASSIFICATION_TYPE = U
NORAD_CAT_ID   = 68353
ELEMENT_SET_NO = 999
REV_AT_EPOCH   = 48
BSTAR          = .32765E-4
MEAN_MOTION_DOT = .13E-6
MEAN_MOTION_DDOT = 0

CCSDS_OMM_VERS = 2.0
CREATION_DATE  = 
ORIGINATOR     = 

OBJECT_NAME    = CENTISPACE-1 OBJECT E
OBJECT_ID      = 2026-060E
CENTER_NAME    = EARTH
REF_FRAME      = TEME
TIME_SYSTEM    = UTC
MEAN_ELEMENT_THEORY = SGP/SGP4

EPOCH          = 2026-03-25T21:20:33.931968
MEAN_MOTION    = 14.75205170
ECCENTRICITY   = .0012775
INCLINATION    = 54.9772
RA_OF_ASC_NODE = 15.5359
ARG_OF_PERICENTER = 305.5560
MEAN_ANOMALY   = 54.4247

EPHEMERIS_TYPE = 0
CLASSIFICATION_TYPE = U
NORAD_CAT_ID   = 68354
ELEMENT_SET_NO = 999
REV_AT_EPOCH   = 48
BSTAR          = .32809E-4
MEAN_MOTION_DOT = .14E-6
MEAN_MOTION_DDOT = 0

CCSDS_OMM_VERS = 2.0
CREATION_DATE  = 
ORIGINATOR     = 

OBJECT_NAME    = CENTISPACE-1 OBJECT F
OBJECT_ID      = 2026-060F
CENTER_NAME    = EARTH
REF_FRAME      = TEME
TIME_SYSTEM    = UTC
MEAN_ELEMENT_THEORY = SGP/SGP4

EPOCH          = 2026-03-26T07:05:54.064896
MEAN_MOTION    = 14.75232431
ECCENTRICITY   = .0013551
INCLINATION    = 54.9787
RA_OF_ASC_NODE = 13.8696
ARG_OF_PERICENTER = 307.0302
MEAN_ANOMALY   = 52.9458

EPHEMERIS_TYPE = 0
CLASSIFICATION_TYPE = U
NORAD_CAT_ID   = 68355
ELEMENT_SET_NO = 999
REV_AT_EPOCH   = 54
BSTAR          = .34213148E-4
MEAN_MOTION_DOT = .23E-6
MEAN_MOTION_DDOT = 0

CCSDS_OMM_VERS = 2.0
CREATION_DATE  = 
ORIGINATOR     = 

OBJECT_NAME    = CENTISPACE-1 OBJECT G
OBJECT_ID      = 2026-060G
CENTER_NAME    = EARTH
REF_FRAME      = TEME
TIME_SYSTEM    = UTC
MEAN_ELEMENT_THEORY = SGP/SGP4

EPOCH          = 2026-03-26T02:12:55.338624
MEAN_MOTION    = 14.75313870
ECCENTRICITY   = .00136311
INCLINATION    = 54.9884
RA_OF_ASC_NODE = 14.7004
ARG_OF_PERICENTER = 307.8185
MEAN_ANOMALY   = 52.1580

EPHEMERIS_TYPE = 0
CLASSIFICATION_TYPE = U
NORAD_CAT_ID   = 68356
ELEMENT_SET_NO = 999
REV_AT_EPOCH   = 51
BSTAR          = .33239364E-4
MEAN_MOTION_DOT = .17E-6
MEAN_MOTION_DDOT = 0

CCSDS_OMM_VERS = 2.0
CREATION_DATE  = 
ORIGINATOR     = 

OBJECT_NAME    = CENTISPACE-1 OBJECT H
OBJECT_ID      = 2026-060H
CENTER_NAME    = EARTH
REF_FRAME      = TEME
TIME_SYSTEM    = UTC
MEAN_ELEMENT_THEORY = SGP/SGP4

EPOCH          = 2026-03-25T14:49:38.254368
MEAN_MOTION    = 14.75425125
ECCENTRICITY   = .00144709
INCLINATION    = 54.9848
RA_OF_ASC_NODE = 16.6351
ARG_OF_PERICENTER = 304.4277
MEAN_ANOMALY   = 55.5354

EPHEMERIS_TYPE = 0
CLASSIFICATION_TYPE = U
NORAD_CAT_ID   = 68357
ELEMENT_SET_NO = 999
REV_AT_EPOCH   = 44
BSTAR          = .33491501E-4
MEAN_MOTION_DOT = .19E-6
MEAN_MOTION_DDOT = 0

CCSDS_OMM_VERS = 2.0
CREATION_DATE  = 
ORIGINATOR     = 

OBJECT_NAME    = CENTISPACE-1 OBJECT J
OBJECT_ID      = 2026-060J
CENTER_NAME    = EARTH
REF_FRAME      = TEME
TIME_SYSTEM    = UTC
MEAN_ELEMENT_THEORY = SGP/SGP4

EPOCH          = 2026-03-25T14:49:37.060320
MEAN_MOTION    = 14.75435012
ECCENTRICITY   = .0013871
INCLINATION    = 54.9877
RA_OF_ASC_NODE = 16.6351
ARG_OF_PERICENTER = 306.1411
MEAN_ANOMALY   = 53.8304

EPHEMERIS_TYPE = 0
CLASSIFICATION_TYPE = U
NORAD_CAT_ID   = 68358
ELEMENT_SET_NO = 999
REV_AT_EPOCH   = 44
BSTAR          = .33263E-4
MEAN_MOTION_DOT = .17E-6
MEAN_MOTION_DDOT = 0

CCSDS_OMM_VERS = 2.0
CREATION_DATE  = 
ORIGINATOR     = 

OBJECT_NAME    = CENTISPACE-1 OBJECT K
OBJECT_ID      = 2026-060K
CENTER_NAME    = EARTH
REF_FRAME      = TEME
TIME_SYSTEM    = UTC
MEAN_ELEMENT_THEORY = SGP/SGP4

EPOCH          = 2026-03-26T02:12:18.021600
MEAN_MOTION    = 14.75496841
ECCENTRICITY   = .00143654
INCLINATION    = 54.9793
RA_OF_ASC_NODE = 14.6986
ARG_OF_PERICENTER = 306.8084
MEAN_ANOMALY   = 53.1597

EPHEMERIS_TYPE = 0
CLASSIFICATION_TYPE = U
NORAD_CAT_ID   = 68359
ELEMENT_SET_NO = 999
REV_AT_EPOCH   = 51
BSTAR          = .33321653E-4
MEAN_MOTION_DOT = .18E-6
MEAN_MOTION_DDOT = 0

